{
    "type": "FeatureCollection",
    "features": [
      {
        "type": "Feature",
        "properties": {
          "name": "Monza Circuit"
        },
        "geometry": {
          "type": "LineString",
          "coordinates": [
            [9.2845, 45.6219],
            [9.2862, 45.6235],
            [9.2878, 45.6251],
            [9.2893, 45.6268],
            [9.2901, 45.6285],
            [9.2898, 45.6302],
            [9.2885, 45.6316],
            [9.2868, 45.6327],
            [9.2849, 45.6335],
            [9.2824, 45.6339],
            [9.2801, 45.6337],
            [9.2778, 45.6331],
            [9.2759, 45.6321],
            [9.2745, 45.6307],
            [9.2739, 45.6291],
            [9.2741, 45.6274],
            [9.2752, 45.6259],
            [9.2771, 45.6245],
            [9.2793, 45.6234],
            [9.2816, 45.6224],
            [9.2845, 45.6219]
          ]
        }
      }
    ]
  }
  